# Made by eph2tle, compiled Jan  4 2022 21:43:10
# Run at Sun Feb  6 18:35:04 2022
#
# No updates
#
#    The following TLEs (Two-Line Elements) were generated by fitting
# a numerically-integrated ephemeris,  based on the orbit given below,
# to the SDP4/SGP4 models.  Each TLE is good for the interval between
# its epoch and the epoch of the subsequent TLE (usually one day).
# The maximum deviation between the numerically integrated ephemerides
# and the TLE-based ephemeris, in kilometers,  is given for each TLE
# as the "worst residual".
#
#    This fitting is done using the 'eph2tle' code packaged with Find_Orb.
# The code has details on how the TLEs were computed :
#
#    https://github.com/Bill-Gray/find_orb/eph2tle.cpp
#
#    Be warned:  the error given is that between the numerically
# integrated ephems and the TLE model.  There will usually be at
# least some additional difference between the ephems and the actual
# motion of the satellite,  especially if the ephemerides are based
# on a short arc.  If the following orbital elements say something
# like "[based on] 10 observations 2015 Jan. 1-13",  and the TLEs
# are for 2015 May,  the extrapolation may be tenuous at best.  If
# your application requires a specific level of accuracy,  you may
# want to contact me;  I can give you some idea as to the fit of the
# underlying data (and possibly TLEs based on newer data).
#
#   You can usually find the underlying observational data,  and the
# fitted orbit,  residuals,  ephemerides,  and sometimes some comments
# about the object,  among the pages listed at
#
#    https://www.projectpluto.com/pluto/mpecs/pseudo.htm
#
#    Also,  if you use a TLE outside the "correct" time range (between
# its MJD and that of the next TLE),  all bets are off.  I've carefully
# computed and minimized the worst error over the "correct" time frame,
# but the ephemeris may (or may not) diverge wildly outside of it.
#
# Ephem range: 59580.000000 59700.000000 1.000000
# Created Sun Feb  6 18:34:14 2022
# Ephemeris start:  1 Jan 2022  0:00:00
# Ephemeris end:    1 May 2022  0:00:00
# Times are all TDT
# Positions/velocities are in ecliptic J2000
# Orbital elements:  A10Fjmq
#    Perigee 2022 Feb 5.9113026 +/- 0.0054 TT = 21:52:16.54 (JD 2459616.4113026)
# Epoch 2022 Feb  6.0 TT = JDT 2459616.5                        Find_Orb
# M  28.5587947387 +/- 1.4            (J2000 equator)
# n 321.9799669525 +/- 2.91           Peri.  328.3171419 +/- 0.16
# a 45504.142897 +/- 274              Node   346.7231183 +/- 0.07
# e   0.618635105 +/- 0.00368         Incl.   12.3564632 +/- 0.0043
# P1610.01m/1.118d           H 33.1   G  0.15   U 13.5
# q 17353.682659 +/- 272    Q 73654.603135 +/- 276
# From 6 observations 2022 Feb. 6 (1.9 hr); mean residual 0".326
#
# 1 NoradU COSPAR   Epoch.epoch     dn/dt/2  d2n/dt2/6 BSTAR    T El# C
# 2 NoradU Inclina RAAscNode Eccent  ArgPeri MeanAno  MeanMotion Rev# C

# Worst residual: 3.54 km
# MJD 59580.000000 (2022 Jan  1  0:00)
A10Fjmq
1 79994U 22999ZZU 22001.49919926  .00000000  00000-0  00000-0 0 14988
2 79994 012.5522 346.7999 6165097 327.4212 118.2359 00.89441714    06

# Worst residual: 2.68 km
# MJD 59581.000000 (2022 Jan  2  0:00)
A10Fjmq
1 79994U 22999ZZU 22002.49919926  .00000000  00000-0  00000-0 0 14989
2 79994 012.5478 346.7887 6165395 327.4642 080.2149 00.89445752    01

# Worst residual: 2.80 km
# MJD 59582.000000 (2022 Jan  3  0:00)
A10Fjmq
1 79994U 22999ZZU 22003.49919926  .00000000  00000-0  00000-0 0 14980
2 79994 012.5436 346.7771 6165475 327.5098 042.1883 00.89448022    07

# Worst residual: 3.30 km
# MJD 59583.000000 (2022 Jan  4  0:00)
A10Fjmq
1 79994U 22999ZZU 22004.49919926  .00000000  00000-0  00000-0 0 14981
2 79994 012.5402 346.7640 6165447 327.5567 004.1614 00.89447971    07

# Worst residual: 2.76 km
# MJD 59584.000000 (2022 Jan  5  0:00)
A10Fjmq
1 79994U 22999ZZU 22005.49919926  .00000000  00000-0  00000-0 0 14982
2 79994 012.5371 346.7488 6165378 327.6039 326.1394 00.89446107    02

# Worst residual: 2.80 km
# MJD 59585.000000 (2022 Jan  6  0:00)
A10Fjmq
1 79994U 22999ZZU 22006.49919926  .00000000  00000-0  00000-0 0 14983
2 79994 012.5337 346.7342 6165263 327.6488 288.1216 00.89444799    09

# Worst residual: 1.97 km
# MJD 59586.000000 (2022 Jan  7  0:00)
A10Fjmq
1 79994U 22999ZZU 22007.49919926  .00000000  00000-0  00000-0 0 14984
2 79994 012.5298 346.7214 6165158 327.6913 250.1060 00.89443752    03

# Worst residual: 1.92 km
# MJD 59587.000000 (2022 Jan  8  0:00)
A10Fjmq
1 79994U 22999ZZU 22008.49919926  .00000000  00000-0  00000-0 0 14985
2 79994 012.5264 346.7078 6165238 327.7353 212.0906 00.89444928    04

# Worst residual: 2.94 km
# MJD 59588.000000 (2022 Jan  9  0:00)
A10Fjmq
1 79994U 22999ZZU 22009.49919926  .00000000  00000-0  00000-0 0 14986
2 79994 012.5228 346.6944 6165299 327.7787 174.0757 00.89446574    03

# Worst residual: 1.81 km
# MJD 59589.000000 (2022 Jan 10  0:00)
A10Fjmq
1 79994U 22999ZZU 22010.49919926  .00000000  00000-0  00000-0 0 14988
2 79994 012.5187 346.6819 6165016 327.8214 136.0603 00.89445560    03

# Worst residual: 1.65 km
# MJD 59590.000000 (2022 Jan 11  0:00)
A10Fjmq
1 79994U 22999ZZU 22011.49919926  .00000000  00000-0  00000-0 0 14989
2 79994 012.5149 346.6688 6164817 327.8635 098.0479 00.89446062    06

# Worst residual: 1.93 km
# MJD 59591.000000 (2022 Jan 12  0:00)
A10Fjmq
1 79994U 22999ZZU 22012.49919926  .00000000  00000-0  00000-0 0 14980
2 79994 012.5111 346.6563 6164549 327.9033 060.0378 00.89447173    03

# Worst residual: 2.18 km
# MJD 59592.000000 (2022 Jan 13  0:00)
A10Fjmq
1 79994U 22999ZZU 22013.49919926  .00000000  00000-0  00000-0 0 14981
2 79994 012.5076 346.6440 6164372 327.9425 022.0287 00.89447598    04

# Worst residual: 2.31 km
# MJD 59593.000000 (2022 Jan 14  0:00)
A10Fjmq
1 79994U 22999ZZU 22014.49919926  .00000000  00000-0  00000-0 0 14982
2 79994 012.5040 346.6320 6164485 327.9807 344.0207 00.89446770    01

# Worst residual: 2.71 km
# MJD 59594.000000 (2022 Jan 15  0:00)
A10Fjmq
1 79994U 22999ZZU 22015.49919926  .00000000  00000-0  00000-0 0 14983
2 79994 012.4999 346.6218 6164792 328.0175 306.0116 00.89446843    08

# Worst residual: 3.41 km
# MJD 59595.000000 (2022 Jan 16  0:00)
A10Fjmq
1 79994U 22999ZZU 22016.49919926  .00000000  00000-0  00000-0 0 14984
2 79994 012.4950 346.6149 6165250 328.0536 267.9972 00.89447553    03

# Worst residual: 3.23 km
# MJD 59596.000000 (2022 Jan 17  0:00)
A10Fjmq
1 79994U 22999ZZU 22017.49919926  .00000000  00000-0  00000-0 0 14985
2 79994 012.4897 346.6100 6165624 328.0894 229.9796 00.89445863    06

# Worst residual: 2.34 km
# MJD 59597.000000 (2022 Jan 18  0:00)
A10Fjmq
1 79994U 22999ZZU 22018.49919926  .00000000  00000-0  00000-0 0 14986
2 79994 012.4846 346.6031 6165574 328.1298 191.9592 00.89441655    03

# Worst residual: 2.33 km
# MJD 59598.000000 (2022 Jan 19  0:00)
A10Fjmq
1 79994U 22999ZZU 22019.49919926  .00000000  00000-0  00000-0 0 14987
2 79994 012.4788 346.5964 6165645 328.1722 153.9376 00.89442462    08

# Worst residual: 2.90 km
# MJD 59599.000000 (2022 Jan 20  0:00)
A10Fjmq
1 79994U 22999ZZU 22020.49919926  .00000000  00000-0  00000-0 0 14989
2 79994 012.4726 346.5872 6165518 328.2154 115.9167 00.89446479    05

# Worst residual: 3.06 km
# MJD 59600.000000 (2022 Jan 21  0:00)
A10Fjmq
1 79994U 22999ZZU 22021.49919926  .00000000  00000-0  00000-0 0 14980
2 79994 012.4662 346.5784 6164878 328.2581 077.8920 00.89448146    04

# Worst residual: 2.54 km
# MJD 59601.000000 (2022 Jan 22  0:00)
A10Fjmq
1 79994U 22999ZZU 22022.49919926  .00000000  00000-0  00000-0 0 14981
2 79994 012.4604 346.5688 6164032 328.2997 039.8694 00.89447685    09

# Worst residual: 2.46 km
# MJD 59602.000000 (2022 Jan 23  0:00)
A10Fjmq
1 79994U 22999ZZU 22023.49919926  .00000000  00000-0  00000-0 0 14982
2 79994 012.4555 346.5571 6163269 328.3405 001.8525 00.89446356    07

# Worst residual: 2.61 km
# MJD 59603.000000 (2022 Jan 24  0:00)
A10Fjmq
1 79994U 22999ZZU 22024.49919926  .00000000  00000-0  00000-0 0 14983
2 79994 012.4512 346.5447 6162811 328.3798 323.8399 00.89444852    04

# Worst residual: 2.31 km
# MJD 59604.000000 (2022 Jan 25  0:00)
A10Fjmq
1 79994U 22999ZZU 22025.49919926  .00000000  00000-0  00000-0 0 14984
2 79994 012.4468 346.5327 6162620 328.4185 285.8273 00.89443919    01

# Worst residual: 2.25 km
# MJD 59605.000000 (2022 Jan 26  0:00)
A10Fjmq
1 79994U 22999ZZU 22026.49919926  .00000000  00000-0  00000-0 0 14985
2 79994 012.4421 346.5219 6162685 328.4583 247.8097 00.89445040    02

# Worst residual: 2.42 km
# MJD 59606.000000 (2022 Jan 27  0:00)
A10Fjmq
1 79994U 22999ZZU 22027.49919926  .00000000  00000-0  00000-0 0 14986
2 79994 012.4379 346.5107 6162995 328.4994 209.7901 00.89446490    01

# Worst residual: 2.90 km
# MJD 59607.000000 (2022 Jan 28  0:00)
A10Fjmq
1 79994U 22999ZZU 22028.49919926  .00000000  00000-0  00000-0 0 14987
2 79994 012.4341 346.4979 6162809 328.5428 171.7694 00.89443145    04

# Worst residual: 2.57 km
# MJD 59608.000000 (2022 Jan 29  0:00)
A10Fjmq
1 79994U 22999ZZU 22029.49919926  .00000000  00000-0  00000-0 0 14988
2 79994 012.4299 346.4853 6162782 328.5880 133.7486 00.89442218    06

# Worst residual: 2.97 km
# MJD 59609.000000 (2022 Jan 30  0:00)
A10Fjmq
1 79994U 22999ZZU 22030.49919926  .00000000  00000-0  00000-0 0 14980
2 79994 012.4262 346.4724 6162921 328.6319 095.7300 00.89445032    05

# Worst residual: 2.99 km
# MJD 59610.000000 (2022 Jan 31  0:00)
A10Fjmq
1 79994U 22999ZZU 22031.49919926  .00000000  00000-0  00000-0 0 14981
2 79994 012.4225 346.4588 6162929 328.6775 057.7082 00.89446960    02

# Worst residual: 3.43 km
# MJD 59611.000000 (2022 Feb  1  0:00)
A10Fjmq
1 79994U 22999ZZU 22032.49919926  .00000000  00000-0  00000-0 0 14982
2 79994 012.4192 346.4448 6162862 328.7238 019.6857 00.89447555    09

# Worst residual: 3.26 km
# MJD 59612.000000 (2022 Feb  2  0:00)
A10Fjmq
1 79994U 22999ZZU 22033.49919926  .00000000  00000-0  00000-0 0 14983
2 79994 012.4165 346.4295 6162779 328.7712 341.6647 00.89447115    00
